COSMOS 2251 DEB         
1 34458U 93036TB  17345.66857300  .00001247  00000-0  33777-3 0  9994
2 34458  74.0269 183.9935 0018308 239.0147 237.4741 14.48650395462676
